{
  "type": "FeatureCollection",
  "features": [
    {
      "type": "Feature",
      "properties": {
        "norad_id": 66933,
        "name": "STARLINK-36157",
        "group": "last-30-days",
        "lat": 42.80451357415134,
        "lon": 23.6407442472366,
        "alt_km": 400.75605428148083,
        "timestamp": "2025-12-26T23:26:40.922817+00:00",
        "meta_object_name": "STARLINK-36157",
        "meta_object_id": "2025-286J",
        "meta_epoch": "2025-12-26T18:00:02.998944",
        "meta_mean_motion": 15.54255042,
        "meta_eccentricity": 0.0001509,
        "meta_inclination": 53.1597,
        "meta_ra_of_asc_node": 340.756,
        "meta_arg_of_pericenter": 90.8108,
        "meta_mean_anomaly": 137.8944,
        "meta_ephemeris_type": 0,
        "meta_classification_type": "U",
        "meta_norad_cat_id": 66933,
        "meta_element_set_no": 999,
        "meta_rev_at_epoch": 424,
        "meta_bstar": -0.034265,
        "meta_mean_motion_dot": -0.02032344,
        "meta_mean_motion_ddot": 0,
        "tle_line1": "1 66933U 25286J   25360.75003471 -.02032344  00000+0 -34265-1 0  9993",
        "tle_line2": "2 66933  53.1597 340.7560 0001509  90.8108 137.8944 15.54255042  4244"
      },
      "geometry": {
        "type": "Point",
        "coordinates": [
          23.6407442472366,
          42.80451357415134
        ]
      }
    },
    {
      "type": "Feature",
      "properties": {
        "norad_id": 66934,
        "name": "STARLINK-36153",
        "group": "last-30-days",
        "lat": 43.890337446308145,
        "lon": 25.817329466063207,
        "alt_km": 400.6399915336124,
        "timestamp": "2025-12-26T23:26:40.922826+00:00",
        "meta_object_name": "STARLINK-36153",
        "meta_object_id": "2025-286K",
        "meta_epoch": "2025-12-26T18:00:02.998944",
        "meta_mean_motion": 15.54253625,
        "meta_eccentricity": 0.0001416,
        "meta_inclination": 53.1595,
        "meta_ra_of_asc_node": 340.7522,
        "meta_arg_of_pericenter": 92.0328,
        "meta_mean_anomaly": 138.5914,
        "meta_ephemeris_type": 0,
        "meta_classification_type": "U",
        "meta_norad_cat_id": 66934,
        "meta_element_set_no": 999,
        "meta_rev_at_epoch": 424,
        "meta_bstar": -0.034247,
        "meta_mean_motion_dot": -0.02031256,
        "meta_mean_motion_ddot": 0,
        "tle_line1": "1 66934U 25286K   25360.75003471 -.02031256  00000+0 -34247-1 0  9995",
        "tle_line2": "2 66934  53.1595 340.7522 0001416  92.0328 138.5914 15.54253625  4246"
      },
      "geometry": {
        "type": "Point",
        "coordinates": [
          25.817329466063207,
          43.890337446308145
        ]
      }
    },
    {
      "type": "Feature",
      "properties": {
        "norad_id": 66935,
        "name": "STARLINK-36127",
        "group": "last-30-days",
        "lat": 44.93326418223047,
        "lon": 28.071246943513625,
        "alt_km": 400.4335295153296,
        "timestamp": "2025-12-26T23:26:40.922834+00:00",
        "meta_object_name": "STARLINK-36127",
        "meta_object_id": "2025-286L",
        "meta_epoch": "2025-12-26T18:00:02.998944",
        "meta_mean_motion": 15.54250171,
        "meta_eccentricity": 0.0001416,
        "meta_inclination": 53.1596,
        "meta_ra_of_asc_node": 340.7469,
        "meta_arg_of_pericenter": 88.1184,
        "meta_mean_anomaly": 144.4246,
        "meta_ephemeris_type": 0,
        "meta_classification_type": "U",
        "meta_norad_cat_id": 66935,
        "meta_element_set_no": 999,
        "meta_rev_at_epoch": 424,
        "meta_bstar": -0.034152,
        "meta_mean_motion_dot": -0.02026008,
        "meta_mean_motion_ddot": 0,
        "tle_line1": "1 66935U 25286L   25360.75003471 -.02026008  00000+0 -34152-1 0  9990",
        "tle_line2": "2 66935  53.1596 340.7469 0001416  88.1184 144.4246 15.54250171  4241"
      },
      "geometry": {
        "type": "Point",
        "coordinates": [
          28.071246943513625,
          44.93326418223047
        ]
      }
    },
    {
      "type": "Feature",
      "properties": {
        "norad_id": 66936,
        "name": "STARLINK-36160",
        "group": "last-30-days",
        "lat": 45.928747918029266,
        "lon": 30.40619759960959,
        "alt_km": 400.2680912225742,
        "timestamp": "2025-12-26T23:26:40.922845+00:00",
        "meta_object_name": "STARLINK-36160",
        "meta_object_id": "2025-286M",
        "meta_epoch": "2025-12-26T18:00:02.998944",
        "meta_mean_motion": 15.54251698,
        "meta_eccentricity": 0.0001444,
        "meta_inclination": 53.1595,
        "meta_ra_of_asc_node": 340.7436,
        "meta_arg_of_pericenter": 90.5248,
        "meta_mean_anomaly": 143.9336,
        "meta_ephemeris_type": 0,
        "meta_classification_type": "U",
        "meta_norad_cat_id": 66936,
        "meta_element_set_no": 999,
        "meta_rev_at_epoch": 424,
        "meta_bstar": -0.034162,
        "meta_mean_motion_dot": -0.02026663,
        "meta_mean_motion_ddot": 0,
        "tle_line1": "1 66936U 25286M   25360.75003471 -.02026663  00000+0 -34162-1 0  9999",
        "tle_line2": "2 66936  53.1595 340.7436 0001444  90.5248 143.9336 15.54251698  4243"
      },
      "geometry": {
        "type": "Point",
        "coordinates": [
          30.40619759960959,
          45.928747918029266
        ]
      }
    },
    {
      "type": "Feature",
      "properties": {
        "norad_id": 66937,
        "name": "STARLINK-36165",
        "group": "last-30-days",
        "lat": 46.874060926524756,
        "lon": 32.82183949067037,
        "alt_km": 400.15984753832436,
        "timestamp": "2025-12-26T23:26:40.922856+00:00",
        "meta_object_name": "STARLINK-36165",
        "meta_object_id": "2025-286N",
        "meta_epoch": "2025-12-26T18:00:02.998944",
        "meta_mean_motion": 15.54251277,
        "meta_eccentricity": 0.0001481,
        "meta_inclination": 53.1592,
        "meta_ra_of_asc_node": 340.7392,
        "meta_arg_of_pericenter": 98.4097,
        "meta_mean_anomaly": 137.9655,
        "meta_ephemeris_type": 0,
        "meta_classification_type": "U",
        "meta_norad_cat_id": 66937,
        "meta_element_set_no": 999,
        "meta_rev_at_epoch": 424,
        "meta_bstar": -0.034152,
        "meta_mean_motion_dot": -0.02026129,
        "meta_mean_motion_ddot": 0,
        "tle_line1": "1 66937U 25286N   25360.75003471 -.02026129  00000+0 -34152-1 0  9996",
        "tle_line2": "2 66937  53.1592 340.7392 0001481  98.4097 137.9655 15.54251277  4242"
      },
      "geometry": {
        "type": "Point",
        "coordinates": [
          32.82183949067037,
          46.874060926524756
        ]
      }
    },
    {
      "type": "Feature",
      "properties": {
        "norad_id": 66938,
        "name": "STARLINK-36155",
        "group": "last-30-days",
        "lat": 47.76836608440065,
        "lon": 35.3254541938674,
        "alt_km": 399.9836621495606,
        "timestamp": "2025-12-26T23:26:40.922865+00:00",
        "meta_object_name": "STARLINK-36155",
        "meta_object_id": "2025-286P",
        "meta_epoch": "2025-12-26T18:00:02.998944",
        "meta_mean_motion": 15.54251517,
        "meta_eccentricity": 0.0001481,
        "meta_inclination": 53.1594,
        "meta_ra_of_asc_node": 340.7347,
        "meta_arg_of_pericenter": 95.3593,
        "meta_mean_anomaly": 142.9326,
        "meta_ephemeris_type": 0,
        "meta_classification_type": "U",
        "meta_norad_cat_id": 66938,
        "meta_element_set_no": 999,
        "meta_rev_at_epoch": 424,
        "meta_bstar": -0.034161,
        "meta_mean_motion_dot": -0.02026609,
        "meta_mean_motion_ddot": 0,
        "tle_line1": "1 66938U 25286P   25360.75003471 -.02026609  00000+0 -34161-1 0  9990",
        "tle_line2": "2 66938  53.1594 340.7347 0001481  95.3593 142.9326 15.54251517  4240"
      },
      "geometry": {
        "type": "Point",
        "coordinates": [
          35.3254541938674,
          47.76836608440065
        ]
      }
    },
    {
      "type": "Feature",
      "properties": {
        "norad_id": 66939,
        "name": "STARLINK-36154",
        "group": "last-30-days",
        "lat": 49.38303785116642,
        "lon": 40.58593697832126,
        "alt_km": 399.71497211347105,
        "timestamp": "2025-12-26T23:26:40.922874+00:00",
        "meta_object_name": "STARLINK-36154",
        "meta_object_id": "2025-286Q",
        "meta_epoch": "2025-12-26T18:00:02.998944",
        "meta_mean_motion": 15.54254377,
        "meta_eccentricity": 0.0001483,
        "meta_inclination": 53.1597,
        "meta_ra_of_asc_node": 340.7274,
        "meta_arg_of_pericenter": 94.9988,
        "meta_mean_anomaly": 147.1247,
        "meta_ephemeris_type": 0,
        "meta_classification_type": "U",
        "meta_norad_cat_id": 66939,
        "meta_element_set_no": 999,
        "meta_rev_at_epoch": 424,
        "meta_bstar": -0.034237,
        "meta_mean_motion_dot": -0.02030815,
        "meta_mean_motion_ddot": 0,
        "tle_line1": "1 66939U 25286Q   25360.75003471 -.02030815  00000+0 -34237-1 0  9999",
        "tle_line2": "2 66939  53.1597 340.7274 0001483  94.9988 147.1247 15.54254377  4244"
      },
      "geometry": {
        "type": "Point",
        "coordinates": [
          40.58593697832126,
          49.38303785116642
        ]
      }
    }
  ]
}